{"type": "FeatureCollection", "features": [{"type": "Feature", "geometry": {"type": "Point", "coordinates": [37.6798, 55.7376]}, "properties": {"id": 1, "title": "\u041b\u0438\u0446\u0435\u0439 \u2116 1580 \u043f\u0440\u0438 \u041c\u0413\u0422\u0423 \u0438\u043c. \u0411\u0430\u0443\u043c\u0430\u043d\u0430", "city": "\u041c\u043e\u0441\u043a\u0432\u0430", "region": "\u041c\u043e\u0441\u043a\u0432\u0430", "address": "\u0443\u043b. \u0422\u0430\u043b\u0430\u043b\u0438\u0445\u0438\u043d\u0430, 1\u043a1", "free_places": 60, "capacity": 60, "url": "/offline/venue/1/"}}, {"type": "Feature", "geometry": {"type": "Point", "coordinates": [37.518, 55.933]}, "properties": {"id": 2, "title": "\u0424\u0438\u0437\u0442\u0435\u0445-\u043b\u0438\u0446\u0435\u0439 \u0438\u043c. \u041f.\u041b. \u041a\u0430\u043f\u0438\u0446\u044b", "city": "\u0414\u043e\u043b\u0433\u043e\u043f\u0440\u0443\u0434\u043d\u044b\u0439", "region": "\u041c\u043e\u0441\u043a\u043e\u0432\u0441\u043a\u0430\u044f \u043e\u0431\u043b\u0430\u0441\u0442\u044c", "address": "\u0443\u043b. \u041b\u0435\u0442\u043d\u0430\u044f, 7", "free_places": 80, "capacity": 80, "url": "/offline/venue/2/"}}, {"type": "Feature", "geometry": {"type": "Point", "coordinates": [83.092, 54.843]}, "properties": {"id": 4, "title": "\u0421\u0423\u041d\u0426 \u041d\u0413\u0423", "city": "\u041d\u043e\u0432\u043e\u0441\u0438\u0431\u0438\u0440\u0441\u043a", "region": "\u041d\u043e\u0432\u043e\u0441\u0438\u0431\u0438\u0440\u0441\u043a\u0430\u044f \u043e\u0431\u043b\u0430\u0441\u0442\u044c", "address": "\u0443\u043b. \u041b\u044f\u043f\u0443\u043d\u043e\u0432\u0430, 3", "free_places": 50, "capacity": 50, "url": "/offline/venue/4/"}}, {"type": "Feature", "geometry": {"type": "Point", "coordinates": [49.113, 55.7855]}, "properties": {"id": 3, "title": "\u041b\u0438\u0446\u0435\u0439 \u2116 131", "city": "\u041a\u0430\u0437\u0430\u043d\u044c", "region": "\u0420\u0435\u0441\u043f\u0443\u0431\u043b\u0438\u043a\u0430 \u0422\u0430\u0442\u0430\u0440\u0441\u0442\u0430\u043d", "address": "\u0443\u043b. \u0412\u043e\u043b\u043a\u043e\u0432\u0430, 5", "free_places": 40, "capacity": 40, "url": "/offline/venue/3/"}}]}